SL-16 R/B               
1 25400U 98043G   25365.11132721  .00000153  00000+0  83001-4 0  9998
2 25400  98.8149 313.0345 0009275 208.1853 151.8825 14.26030597429216
SL-16 R/B               
1 25407U 98045B   25365.12949675  .00000093  00000+0  71107-4 0  9999
2 25407  71.0126 325.7527 0005773 145.8012 214.3485 14.16181395417391
ISS (ZARYA)             
1 25544U 98067A   25364.72639447  .00016146  00000+0  30091-3 0  9995
2 25544  51.6331  53.3984 0007478 320.8804  39.1643 15.48950977545649
CZ-4B R/B               
1 25732U 99025C   25365.16421186  .00000152  00000+0  94326-4 0  9999
2 25732  98.6742  46.0297 0037137 180.4854 249.0157 14.18248608378453
OKEAN-O                 
1 25860U 99039A   25365.10932690  .00001390  00000+0  18973-3 0  9995
2 25860  97.9577  60.6500 0001297 114.5689 245.5658 14.80197513424247
SL-16 R/B               
1 25861U 99039B   25365.15433304  .00001168  00000+0  15520-3 0  9997
2 25861  98.0100  59.3044 0015981 117.6619 242.6218 14.81617185426719
DELTA 2 R/B             
1 25876U 99041E   25365.05277139  .00003222  00000+0  55595-3 0  9996
2 25876  51.7593 215.3397 0504275 145.7402 217.7169 14.11463778353338
HELIOS 1B               
1 25977U 99064A   25365.16981669  .00003490  00000+0  39259-3 0  9991
2 25977  98.1754 260.3824 0000589  35.5017 324.6237 14.87367842675076
TERRA                   
1 25994U 99068A   25365.15809926  .00000872  00000+0  18722-3 0  9991
2 25994  97.9724  56.1642 0003210  57.2287   2.9163 14.60925585385079
SL-16 R/B               
1 26070U 00006B   25365.12708867  .00000337  00000+0  19551-3 0  9997
2 26070  71.0013 241.9971 0018708 283.8550  76.0492 14.15812638338851
TITAN 4B R/B            
1 26474U 00047B   25365.10520847  .00005931  00000+0  37697-3 0  9994
2 26474  67.9889 233.2713 0037705 122.1521 238.3295 15.08928505382568
ENVISAT                 
1 27386U 02009A   25364.37958830  .00000257  00000+0  97010-4 0  9994
2 27386  98.3625 314.6753 0001115  88.2338  83.3691 14.39006569249200
