CCSDS_OMM_VERS = 2.0
CREATION_DATE  = 
ORIGINATOR     = 

OBJECT_NAME    = SL-16 R/B
OBJECT_ID      = 1998-043G
CENTER_NAME    = EARTH
REF_FRAME      = TEME
TIME_SYSTEM    = UTC
MEAN_ELEMENT_THEORY = SGP/SGP4

EPOCH          = 2025-12-31T02:40:18.670944
MEAN_MOTION    = 14.26030597
ECCENTRICITY   = .0009275
INCLINATION    = 98.8149
RA_OF_ASC_NODE = 313.0345
ARG_OF_PERICENTER = 208.1853
MEAN_ANOMALY   = 151.8825

EPHEMERIS_TYPE = 0
CLASSIFICATION_TYPE = U
NORAD_CAT_ID   = 25400
ELEMENT_SET_NO = 999
REV_AT_EPOCH   = 42921
BSTAR          = .83001E-4
MEAN_MOTION_DOT = .153E-5
MEAN_MOTION_DDOT = 0

CCSDS_OMM_VERS = 2.0
CREATION_DATE  = 
ORIGINATOR     = 

OBJECT_NAME    = SL-16 R/B
OBJECT_ID      = 1998-045B
CENTER_NAME    = EARTH
REF_FRAME      = TEME
TIME_SYSTEM    = UTC
MEAN_ELEMENT_THEORY = SGP/SGP4

EPOCH          = 2025-12-31T03:06:28.519200
MEAN_MOTION    = 14.16181395
ECCENTRICITY   = .0005773
INCLINATION    = 71.0126
RA_OF_ASC_NODE = 325.7527
ARG_OF_PERICENTER = 145.8012
MEAN_ANOMALY   = 214.3485

EPHEMERIS_TYPE = 0
CLASSIFICATION_TYPE = U
NORAD_CAT_ID   = 25407
ELEMENT_SET_NO = 999
REV_AT_EPOCH   = 41739
BSTAR          = .71107E-4
MEAN_MOTION_DOT = .93E-6
MEAN_MOTION_DDOT = 0

CCSDS_OMM_VERS = 2.0
CREATION_DATE  = 
ORIGINATOR     = 

OBJECT_NAME    = ISS (ZARYA)
OBJECT_ID      = 1998-067A
CENTER_NAME    = EARTH
REF_FRAME      = TEME
TIME_SYSTEM    = UTC
MEAN_ELEMENT_THEORY = SGP/SGP4

EPOCH          = 2025-12-30T17:26:00.482208
MEAN_MOTION    = 15.48950977
ECCENTRICITY   = .0007478
INCLINATION    = 51.6331
RA_OF_ASC_NODE = 53.3984
ARG_OF_PERICENTER = 320.8804
MEAN_ANOMALY   = 39.1643

EPHEMERIS_TYPE = 0
CLASSIFICATION_TYPE = U
NORAD_CAT_ID   = 25544
ELEMENT_SET_NO = 999
REV_AT_EPOCH   = 54564
BSTAR          = .30091E-3
MEAN_MOTION_DOT = .16146E-3
MEAN_MOTION_DDOT = 0

CCSDS_OMM_VERS = 2.0
CREATION_DATE  = 
ORIGINATOR     = 

OBJECT_NAME    = CZ-4B R/B
OBJECT_ID      = 1999-025C
CENTER_NAME    = EARTH
REF_FRAME      = TEME
TIME_SYSTEM    = UTC
MEAN_ELEMENT_THEORY = SGP/SGP4

EPOCH          = 2025-12-31T03:56:27.904704
MEAN_MOTION    = 14.18248608
ECCENTRICITY   = .0037137
INCLINATION    = 98.6742
RA_OF_ASC_NODE = 46.0297
ARG_OF_PERICENTER = 180.4854
MEAN_ANOMALY   = 249.0157

EPHEMERIS_TYPE = 0
CLASSIFICATION_TYPE = U
NORAD_CAT_ID   = 25732
ELEMENT_SET_NO = 999
REV_AT_EPOCH   = 37845
BSTAR          = .94326E-4
MEAN_MOTION_DOT = .152E-5
MEAN_MOTION_DDOT = 0

CCSDS_OMM_VERS = 2.0
CREATION_DATE  = 
ORIGINATOR     = 

OBJECT_NAME    = OKEAN-O
OBJECT_ID      = 1999-039A
CENTER_NAME    = EARTH
REF_FRAME      = TEME
TIME_SYSTEM    = UTC
MEAN_ELEMENT_THEORY = SGP/SGP4

EPOCH          = 2025-12-31T02:37:25.844160
MEAN_MOTION    = 14.80197513
ECCENTRICITY   = .0001297
INCLINATION    = 97.9577
RA_OF_ASC_NODE = 60.6500
ARG_OF_PERICENTER = 114.5689
MEAN_ANOMALY   = 245.5658

EPHEMERIS_TYPE = 0
CLASSIFICATION_TYPE = U
NORAD_CAT_ID   = 25860
ELEMENT_SET_NO = 999
REV_AT_EPOCH   = 42424
BSTAR          = .18973E-3
MEAN_MOTION_DOT = .139E-4
MEAN_MOTION_DDOT = 0

CCSDS_OMM_VERS = 2.0
CREATION_DATE  = 
ORIGINATOR     = 

OBJECT_NAME    = SL-16 R/B
OBJECT_ID      = 1999-039B
CENTER_NAME    = EARTH
REF_FRAME      = TEME
TIME_SYSTEM    = UTC
MEAN_ELEMENT_THEORY = SGP/SGP4

EPOCH          = 2025-12-31T03:42:14.374656
MEAN_MOTION    = 14.81617185
ECCENTRICITY   = .0015981
INCLINATION    = 98.0100
RA_OF_ASC_NODE = 59.3044
ARG_OF_PERICENTER = 117.6619
MEAN_ANOMALY   = 242.6218

EPHEMERIS_TYPE = 0
CLASSIFICATION_TYPE = U
NORAD_CAT_ID   = 25861
ELEMENT_SET_NO = 999
REV_AT_EPOCH   = 42671
BSTAR          = .1552E-3
MEAN_MOTION_DOT = .1168E-4
MEAN_MOTION_DDOT = 0

CCSDS_OMM_VERS = 2.0
CREATION_DATE  = 
ORIGINATOR     = 

OBJECT_NAME    = DELTA 2 R/B
OBJECT_ID      = 1999-041E
CENTER_NAME    = EARTH
REF_FRAME      = TEME
TIME_SYSTEM    = UTC
MEAN_ELEMENT_THEORY = SGP/SGP4

EPOCH          = 2025-12-31T01:15:59.448096
MEAN_MOTION    = 14.11463778
ECCENTRICITY   = .0504275
INCLINATION    = 51.7593
RA_OF_ASC_NODE = 215.3397
ARG_OF_PERICENTER = 145.7402
MEAN_ANOMALY   = 217.7169

EPHEMERIS_TYPE = 0
CLASSIFICATION_TYPE = U
NORAD_CAT_ID   = 25876
ELEMENT_SET_NO = 999
REV_AT_EPOCH   = 35333
BSTAR          = .55595E-3
MEAN_MOTION_DOT = .3222E-4
MEAN_MOTION_DDOT = 0

CCSDS_OMM_VERS = 2.0
CREATION_DATE  = 
ORIGINATOR     = 

OBJECT_NAME    = HELIOS 1B
OBJECT_ID      = 1999-064A
CENTER_NAME    = EARTH
REF_FRAME      = TEME
TIME_SYSTEM    = UTC
MEAN_ELEMENT_THEORY = SGP/SGP4

EPOCH          = 2025-12-31T04:04:32.162016
MEAN_MOTION    = 14.87367842
ECCENTRICITY   = .0000589
INCLINATION    = 98.1754
RA_OF_ASC_NODE = 260.3824
ARG_OF_PERICENTER = 35.5017
MEAN_ANOMALY   = 324.6237

EPHEMERIS_TYPE = 0
CLASSIFICATION_TYPE = U
NORAD_CAT_ID   = 25977
ELEMENT_SET_NO = 999
REV_AT_EPOCH   = 67507
BSTAR          = .39259E-3
MEAN_MOTION_DOT = .349E-4
MEAN_MOTION_DDOT = 0

CCSDS_OMM_VERS = 2.0
CREATION_DATE  = 
ORIGINATOR     = 

OBJECT_NAME    = TERRA
OBJECT_ID      = 1999-068A
CENTER_NAME    = EARTH
REF_FRAME      = TEME
TIME_SYSTEM    = UTC
MEAN_ELEMENT_THEORY = SGP/SGP4

EPOCH          = 2025-12-31T03:47:39.776064
MEAN_MOTION    = 14.60925585
ECCENTRICITY   = .000321
INCLINATION    = 97.9724
RA_OF_ASC_NODE = 56.1642
ARG_OF_PERICENTER = 57.2287
MEAN_ANOMALY   = 2.9163

EPHEMERIS_TYPE = 0
CLASSIFICATION_TYPE = U
NORAD_CAT_ID   = 25994
ELEMENT_SET_NO = 999
REV_AT_EPOCH   = 38507
BSTAR          = .18722E-3
MEAN_MOTION_DOT = .872E-5
MEAN_MOTION_DDOT = 0

CCSDS_OMM_VERS = 2.0
CREATION_DATE  = 
ORIGINATOR     = 

OBJECT_NAME    = SL-16 R/B
OBJECT_ID      = 2000-006B
CENTER_NAME    = EARTH
REF_FRAME      = TEME
TIME_SYSTEM    = UTC
MEAN_ELEMENT_THEORY = SGP/SGP4

EPOCH          = 2025-12-31T03:03:00.461088
MEAN_MOTION    = 14.15812638
ECCENTRICITY   = .0018708
INCLINATION    = 71.0013
RA_OF_ASC_NODE = 241.9971
ARG_OF_PERICENTER = 283.8550
MEAN_ANOMALY   = 76.0492

EPHEMERIS_TYPE = 0
CLASSIFICATION_TYPE = U
NORAD_CAT_ID   = 26070
ELEMENT_SET_NO = 999
REV_AT_EPOCH   = 33885
BSTAR          = .19551E-3
MEAN_MOTION_DOT = .337E-5
MEAN_MOTION_DDOT = 0

CCSDS_OMM_VERS = 2.0
CREATION_DATE  = 
ORIGINATOR     = 

OBJECT_NAME    = TITAN 4B R/B
OBJECT_ID      = 2000-047B
CENTER_NAME    = EARTH
REF_FRAME      = TEME
TIME_SYSTEM    = UTC
MEAN_ELEMENT_THEORY = SGP/SGP4

EPOCH          = 2025-12-31T02:31:30.011808
MEAN_MOTION    = 15.08928505
ECCENTRICITY   = .0037705
INCLINATION    = 67.9889
RA_OF_ASC_NODE = 233.2713
ARG_OF_PERICENTER = 122.1521
MEAN_ANOMALY   = 238.3295

EPHEMERIS_TYPE = 0
CLASSIFICATION_TYPE = U
NORAD_CAT_ID   = 26474
ELEMENT_SET_NO = 999
REV_AT_EPOCH   = 38256
BSTAR          = .37697E-3
MEAN_MOTION_DOT = .5931E-4
MEAN_MOTION_DDOT = 0

CCSDS_OMM_VERS = 2.0
CREATION_DATE  = 
ORIGINATOR     = 

OBJECT_NAME    = ENVISAT
OBJECT_ID      = 2002-009A
CENTER_NAME    = EARTH
REF_FRAME      = TEME
TIME_SYSTEM    = UTC
MEAN_ELEMENT_THEORY = SGP/SGP4

EPOCH          = 2025-12-30T09:06:36.429120
MEAN_MOTION    = 14.39006569
ECCENTRICITY   = .00011154
INCLINATION    = 98.3625
RA_OF_ASC_NODE = 314.6753
ARG_OF_PERICENTER = 88.2338
MEAN_ANOMALY   = 83.3691

EPHEMERIS_TYPE = 0
CLASSIFICATION_TYPE = U
NORAD_CAT_ID   = 27386
ELEMENT_SET_NO = 999
REV_AT_EPOCH   = 24920
BSTAR          = .97009711E-4
MEAN_MOTION_DOT = .257E-5
MEAN_MOTION_DDOT = 0

